LANDSAT 9               
1 49260U 21088A   23304.19707643  .00000772  00000+0  18143-3 0  9994
2 49260  98.2166  12.3696 0001076  95.3606 264.7715 14.57128607111191
